SL-16 R/B               
1 22566U 93016B   26022.76897913  .00000338  00000+0  19787-3 0  9990
2 22566  71.0087 311.6307 0009147  21.8608 338.2903 14.15295918695679
COSMOS 2242             
1 22626U 93024A   26022.76542071  .00003221  00000+0  28171-3 0  9999
2 22626  82.5213 310.6317 0018091  98.3541 261.9733 14.96324952773521
SL-16 R/B               
1 22803U 93059B   26022.59899044 -.00000030  00000+0  87835-5 0  9990
2 22803  70.9908 108.3267 0019575 279.2446  80.6463 14.17223826673007
ARIANE 40 R/B           
1 22830U 93061H   26022.61006316  .00000503  00000+0  19996-3 0  9993
2 22830  98.5012  92.3848 0011642  64.1786 296.0598 14.32832527687504
COSMOS 2278             
1 23087U 94023A   26022.98063649  .00000026  00000+0  38431-4 0  9995
2 23087  71.0537 270.7296 0006370 100.9421 259.2418 14.14366860638345
SL-16 R/B               
1 23088U 94023B   26022.69438462 -.00000029  00000+0  95117-5 0  9992
2 23088  70.9998 167.4802 0003953 328.6404  31.4483 14.15007039639584
SL-16 R/B               
1 23343U 94074B   26022.54692976  .00000934  00000+0  13201-3 0  9994
2 23343  97.7165  55.2222 0007057  23.7336 130.1573 14.79345690680421
SL-16 R/B               
1 23405U 94077B   26022.90595328  .00000019  00000+0  34098-4 0  9991
2 23405  70.9831  88.8120 0004842 252.8139 107.2454 14.15558751609751
ARIANE 40+ R/B          
1 23561U 95021B   26022.68197709  .00000660  00000+0  22469-3 0  9990
2 23561  98.4589  94.7663 0005623 280.8181 196.3316 14.39733494612624
SL-16 R/B               
1 23705U 95058B   26022.98133767 -.00000182  00000+0 -68972-4 0  9998
2 23705  71.0211 276.2199 0013237 199.7045 160.3568 14.15489103561386
SL-16 R/B               
1 24298U 96051B   26022.99034063  .00000102  00000+0  81717-4 0  9992
2 24298  70.7583 271.9704 0018571 210.1841 149.8211 14.12402857515197
ORBVIEW 2 (SEASTAR)     
1 24883U 97037A   26022.55331978  .00000628  00000+0  23460-3 0  9997
2 24883  98.8489 185.6633 0002205 171.3318 188.7905 14.35453725501854
