CCSDS_OMM_VERS = 2.0
CREATION_DATE  = 
ORIGINATOR     = 

OBJECT_NAME    = SL-16 R/B
OBJECT_ID      = 1993-016B
CENTER_NAME    = EARTH
REF_FRAME      = TEME
TIME_SYSTEM    = UTC
MEAN_ELEMENT_THEORY = SGP/SGP4

EPOCH          = 2026-01-22T18:27:19.796832
MEAN_MOTION    = 14.15295918
ECCENTRICITY   = .00091474
INCLINATION    = 71.0087
RA_OF_ASC_NODE = 311.6307
ARG_OF_PERICENTER = 21.8608
MEAN_ANOMALY   = 338.2903

EPHEMERIS_TYPE = 0
CLASSIFICATION_TYPE = U
NORAD_CAT_ID   = 22566
ELEMENT_SET_NO = 999
REV_AT_EPOCH   = 69567
BSTAR          = .19787411E-3
MEAN_MOTION_DOT = .338E-5
MEAN_MOTION_DDOT = 0

CCSDS_OMM_VERS = 2.0
CREATION_DATE  = 
ORIGINATOR     = 

OBJECT_NAME    = COSMOS 2242
OBJECT_ID      = 1993-024A
CENTER_NAME    = EARTH
REF_FRAME      = TEME
TIME_SYSTEM    = UTC
MEAN_ELEMENT_THEORY = SGP/SGP4

EPOCH          = 2026-01-22T18:22:12.349344
MEAN_MOTION    = 14.96324952
ECCENTRICITY   = .00180919
INCLINATION    = 82.5213
RA_OF_ASC_NODE = 310.6317
ARG_OF_PERICENTER = 98.3541
MEAN_ANOMALY   = 261.9733

EPHEMERIS_TYPE = 0
CLASSIFICATION_TYPE = U
NORAD_CAT_ID   = 22626
ELEMENT_SET_NO = 999
REV_AT_EPOCH   = 77352
BSTAR          = .28171174E-3
MEAN_MOTION_DOT = .3221E-4
MEAN_MOTION_DDOT = 0

CCSDS_OMM_VERS = 2.0
CREATION_DATE  = 
ORIGINATOR     = 

OBJECT_NAME    = SL-16 R/B
OBJECT_ID      = 1993-059B
CENTER_NAME    = EARTH
REF_FRAME      = TEME
TIME_SYSTEM    = UTC
MEAN_ELEMENT_THEORY = SGP/SGP4

EPOCH          = 2026-01-22T14:22:32.774016
MEAN_MOTION    = 14.17223826
ECCENTRICITY   = .00195753
INCLINATION    = 70.9908
RA_OF_ASC_NODE = 108.3267
ARG_OF_PERICENTER = 279.2446
MEAN_ANOMALY   = 80.6463

EPHEMERIS_TYPE = 0
CLASSIFICATION_TYPE = U
NORAD_CAT_ID   = 22803
ELEMENT_SET_NO = 999
REV_AT_EPOCH   = 67300
BSTAR          = .878346E-5
MEAN_MOTION_DOT = -.3E-6
MEAN_MOTION_DDOT = 0

CCSDS_OMM_VERS = 2.0
CREATION_DATE  = 
ORIGINATOR     = 

OBJECT_NAME    = ARIANE 40 R/B
OBJECT_ID      = 1993-061H
CENTER_NAME    = EARTH
REF_FRAME      = TEME
TIME_SYSTEM    = UTC
MEAN_ELEMENT_THEORY = SGP/SGP4

EPOCH          = 2026-01-22T14:38:29.457024
MEAN_MOTION    = 14.32832527
ECCENTRICITY   = .00116425
INCLINATION    = 98.5012
RA_OF_ASC_NODE = 92.3848
ARG_OF_PERICENTER = 64.1786
MEAN_ANOMALY   = 296.0598

EPHEMERIS_TYPE = 0
CLASSIFICATION_TYPE = U
NORAD_CAT_ID   = 22830
ELEMENT_SET_NO = 999
REV_AT_EPOCH   = 68750
BSTAR          = .19996195E-3
MEAN_MOTION_DOT = .503E-5
MEAN_MOTION_DDOT = 0

CCSDS_OMM_VERS = 2.0
CREATION_DATE  = 
ORIGINATOR     = 

OBJECT_NAME    = COSMOS 2278
OBJECT_ID      = 1994-023A
CENTER_NAME    = EARTH
REF_FRAME      = TEME
TIME_SYSTEM    = UTC
MEAN_ELEMENT_THEORY = SGP/SGP4

EPOCH          = 2026-01-22T23:32:06.992736
MEAN_MOTION    = 14.14366860
ECCENTRICITY   = .00063703
INCLINATION    = 71.0537
RA_OF_ASC_NODE = 270.7296
ARG_OF_PERICENTER = 100.9421
MEAN_ANOMALY   = 259.2418

EPHEMERIS_TYPE = 0
CLASSIFICATION_TYPE = U
NORAD_CAT_ID   = 23087
ELEMENT_SET_NO = 999
REV_AT_EPOCH   = 63834
BSTAR          = .3843098E-4
MEAN_MOTION_DOT = .26E-6
MEAN_MOTION_DDOT = 0

CCSDS_OMM_VERS = 2.0
CREATION_DATE  = 
ORIGINATOR     = 

OBJECT_NAME    = SL-16 R/B
OBJECT_ID      = 1994-023B
CENTER_NAME    = EARTH
REF_FRAME      = TEME
TIME_SYSTEM    = UTC
MEAN_ELEMENT_THEORY = SGP/SGP4

EPOCH          = 2026-01-22T16:39:54.831168
MEAN_MOTION    = 14.15007039
ECCENTRICITY   = .00039539
INCLINATION    = 70.9998
RA_OF_ASC_NODE = 167.4802
ARG_OF_PERICENTER = 328.6404
MEAN_ANOMALY   = 31.4483

EPHEMERIS_TYPE = 0
CLASSIFICATION_TYPE = U
NORAD_CAT_ID   = 23088
ELEMENT_SET_NO = 999
REV_AT_EPOCH   = 63958
BSTAR          = .9511675E-5
MEAN_MOTION_DOT = -.29E-6
MEAN_MOTION_DDOT = 0

CCSDS_OMM_VERS = 2.0
CREATION_DATE  = 
ORIGINATOR     = 

OBJECT_NAME    = SL-16 R/B
OBJECT_ID      = 1994-074B
CENTER_NAME    = EARTH
REF_FRAME      = TEME
TIME_SYSTEM    = UTC
MEAN_ELEMENT_THEORY = SGP/SGP4

EPOCH          = 2026-01-22T13:07:34.731264
MEAN_MOTION    = 14.79345690
ECCENTRICITY   = .00070578
INCLINATION    = 97.7165
RA_OF_ASC_NODE = 55.2222
ARG_OF_PERICENTER = 23.7336
MEAN_ANOMALY   = 130.1573

EPHEMERIS_TYPE = 0
CLASSIFICATION_TYPE = U
NORAD_CAT_ID   = 23343
ELEMENT_SET_NO = 999
REV_AT_EPOCH   = 68042
BSTAR          = .13200641E-3
MEAN_MOTION_DOT = .934E-5
MEAN_MOTION_DDOT = 0

CCSDS_OMM_VERS = 2.0
CREATION_DATE  = 
ORIGINATOR     = 

OBJECT_NAME    = SL-16 R/B
OBJECT_ID      = 1994-077B
CENTER_NAME    = EARTH
REF_FRAME      = TEME
TIME_SYSTEM    = UTC
MEAN_ELEMENT_THEORY = SGP/SGP4

EPOCH          = 2026-01-22T21:44:34.363392
MEAN_MOTION    = 14.15558751
ECCENTRICITY   = .00048425
INCLINATION    = 70.9831
RA_OF_ASC_NODE = 88.8120
ARG_OF_PERICENTER = 252.8139
MEAN_ANOMALY   = 107.2454

EPHEMERIS_TYPE = 0
CLASSIFICATION_TYPE = U
NORAD_CAT_ID   = 23405
ELEMENT_SET_NO = 999
REV_AT_EPOCH   = 60975
BSTAR          = .34097638E-4
MEAN_MOTION_DOT = .19E-6
MEAN_MOTION_DDOT = 0

CCSDS_OMM_VERS = 2.0
CREATION_DATE  = 
ORIGINATOR     = 

OBJECT_NAME    = ARIANE 40+ R/B
OBJECT_ID      = 1995-021B
CENTER_NAME    = EARTH
REF_FRAME      = TEME
TIME_SYSTEM    = UTC
MEAN_ELEMENT_THEORY = SGP/SGP4

EPOCH          = 2026-01-22T16:22:02.820576
MEAN_MOTION    = 14.39733494
ECCENTRICITY   = .00056239
INCLINATION    = 98.4589
RA_OF_ASC_NODE = 94.7663
ARG_OF_PERICENTER = 280.8181
MEAN_ANOMALY   = 196.3316

EPHEMERIS_TYPE = 0
CLASSIFICATION_TYPE = U
NORAD_CAT_ID   = 23561
ELEMENT_SET_NO = 999
REV_AT_EPOCH   = 61262
BSTAR          = .22468634E-3
MEAN_MOTION_DOT = .66E-5
MEAN_MOTION_DDOT = 0

CCSDS_OMM_VERS = 2.0
CREATION_DATE  = 
ORIGINATOR     = 

OBJECT_NAME    = SL-16 R/B
OBJECT_ID      = 1995-058B
CENTER_NAME    = EARTH
REF_FRAME      = TEME
TIME_SYSTEM    = UTC
MEAN_ELEMENT_THEORY = SGP/SGP4

EPOCH          = 2026-01-22T23:33:07.574688
MEAN_MOTION    = 14.15489103
ECCENTRICITY   = .00132375
INCLINATION    = 71.0211
RA_OF_ASC_NODE = 276.2199
ARG_OF_PERICENTER = 199.7045
MEAN_ANOMALY   = 160.3568

EPHEMERIS_TYPE = 0
CLASSIFICATION_TYPE = U
NORAD_CAT_ID   = 23705
ELEMENT_SET_NO = 999
REV_AT_EPOCH   = 56138
BSTAR          = -.68971676E-4
MEAN_MOTION_DOT = -.182E-5
MEAN_MOTION_DDOT = 0

CCSDS_OMM_VERS = 2.0
CREATION_DATE  = 
ORIGINATOR     = 

OBJECT_NAME    = SL-16 R/B
OBJECT_ID      = 1996-051B
CENTER_NAME    = EARTH
REF_FRAME      = TEME
TIME_SYSTEM    = UTC
MEAN_ELEMENT_THEORY = SGP/SGP4

EPOCH          = 2026-01-22T23:46:05.430432
MEAN_MOTION    = 14.12402857
ECCENTRICITY   = .00185713
INCLINATION    = 70.7583
RA_OF_ASC_NODE = 271.9704
ARG_OF_PERICENTER = 210.1841
MEAN_ANOMALY   = 149.8211

EPHEMERIS_TYPE = 0
CLASSIFICATION_TYPE = U
NORAD_CAT_ID   = 24298
ELEMENT_SET_NO = 999
REV_AT_EPOCH   = 51519
BSTAR          = .81717072E-4
MEAN_MOTION_DOT = .102E-5
MEAN_MOTION_DDOT = 0

CCSDS_OMM_VERS = 2.0
CREATION_DATE  = 
ORIGINATOR     = 

OBJECT_NAME    = ORBVIEW 2 (SEASTAR)
OBJECT_ID      = 1997-037A
CENTER_NAME    = EARTH
REF_FRAME      = TEME
TIME_SYSTEM    = UTC
MEAN_ELEMENT_THEORY = SGP/SGP4

EPOCH          = 2026-01-22T13:16:46.828992
MEAN_MOTION    = 14.35453725
ECCENTRICITY   = .0002205
INCLINATION    = 98.8489
RA_OF_ASC_NODE = 185.6633
ARG_OF_PERICENTER = 171.3318
MEAN_ANOMALY   = 188.7905

EPHEMERIS_TYPE = 0
CLASSIFICATION_TYPE = U
NORAD_CAT_ID   = 24883
ELEMENT_SET_NO = 999
REV_AT_EPOCH   = 50185
BSTAR          = .2346004E-3
MEAN_MOTION_DOT = .628E-5
MEAN_MOTION_DDOT = 0

